[{"OBJECT_NAME":"COSMOS 2588","OBJECT_ID":"2025-109A","EPOCH":"2026-03-09T19:28:59.107008","MEAN_MOTION":15.29122656,"ECCENTRICITY":0.0005019,"INCLINATION":72.9704,"RA_OF_ASC_NODE":73.5401,"ARG_OF_PERICENTER":308.678,"MEAN_ANOMALY":51.3966,"EPHEMERIS_TYPE":0,"CLASSIFICATION_TYPE":"U","NORAD_CAT_ID":64095,"ELEMENT_SET_NO":999,"REV_AT_EPOCH":4442,"BSTAR":0.00032611,"MEAN_MOTION_DOT":9.169e-5,"MEAN_MOTION_DDOT":0},{"OBJECT_NAME":"STARLINK-34238","OBJECT_ID":"2025-192M","EPOCH":"2026-03-09T17:03:28.927872","MEAN_MOTION":15.30189159,"ECCENTRICITY":0.00011603,"INCLINATION":53.1599,"RA_OF_ASC_NODE":232.5203,"ARG_OF_PERICENTER":100.6787,"MEAN_ANOMALY":259.4344,"EPHEMERIS_TYPE":0,"CLASSIFICATION_TYPE":"U","NORAD_CAT_ID":65415,"ELEMENT_SET_NO":999,"REV_AT_EPOCH":2938,"BSTAR":0.00066904788,"MEAN_MOTION_DOT":0.00019501,"MEAN_MOTION_DDOT":0}]
